COMMENT,ORIGINATOR,NORAD_CAT_ID,OBJECT_NAME,OBJECT_TYPE,CLASSIFICATION_TYPE,INTLDES,EPOCH,EPOCH_MICROSECONDS,MEAN_MOTION,ECCENTRICITY,INCLINATION,RA_OF_ASC_NODE,ARG_OF_PERICENTER,MEAN_ANOMALY,EPHEMERIS_TYPE,ELEMENT_SET_NO,REV_AT_EPOCH,BSTAR,MEAN_MOTION_DOT,MEAN_MOTION_DDOT,FILE,TLE_LINE0,TLE_LINE1,TLE_LINE2,OBJECT_ID,OBJECT_NUMBER,SEMIMAJOR_AXIS,PERIOD,APOGEE,PERIGEE,DECAYED,date
GENERATED VIA SPACETRACK.ORG API,18 SPCS,48890,SPACEBEE-104,PAYLOAD,U,21059M,2023/4/21 22:07,237056,15.28689462,0.0007071,97.5871,247.6317,119.469,240.7255,0,999,10079,0.0014547,0.00040708,0,3891832,0 SPACEBEE-104,1 48890U 21059M   23111.92192404  .00040708  00000-0  14547-2 0  9997,2 48890  97.5871 247.6317 0007071 119.4690 240.7255 15.28689462100796,2021-059M,48890,6857.866,94.198,484.58,474.882,0,
GENERATED VIA SPACETRACK.ORG API,18 SPCS,48890,SPACEBEE-104,PAYLOAD,U,21059M,2023/4/22 7:33,83648,15.28720141,0.0007068,97.5874,248.0319,117.9721,242.2235,0,999,10085,0.0014373,0.00040256,0,3892071,0 SPACEBEE-104,1 48890U 21059M   23112.31466532  .00040256  00000-0  14373-2 0  9992,2 48890  97.5874 248.0319 0007068 117.9721 242.2235 15.28720141100852,2021-059M,48890,6857.774,94.196,484.486,474.792,0,
GENERATED VIA SPACETRACK.ORG API,18 SPCS,48890,SPACEBEE-104,PAYLOAD,U,21059M,2023/4/23 8:41,289408,15.2879788,0.000702,97.5876,249.0992,114.6139,245.5833,0,999,10101,0.0012593,0.00035321,0,3892649,0 SPACEBEE-104,1 48890U 21059M   23113.36193622  .00035321  00000-0  12593-2 0  9994,2 48890  97.5876 249.0992 0007020 114.6139 245.5833 15.28797880101010,2021-059M,48890,6857.542,94.192,484.221,474.593,0,
GENERATED VIA SPACETRACK.ORG API,18 SPCS,48890,SPACEBEE-104,PAYLOAD,U,21059M,2023/4/23 8:41,289408,15.2879788,0.000702,97.5876,249.0992,114.6139,245.5833,0,999,10101,0.0012593,0.00035321,0,3892688,0 SPACEBEE-104,1 48890U 21059M   23113.36193622  .00035321  00000-0  12593-2 0  9994,2 48890  97.5876 249.0992 0007020 114.6139 245.5833 15.28797880101010,2021-059M,48890,6857.542,94.192,484.221,474.593,0,
GENERATED VIA SPACETRACK.ORG API,18 SPCS,48890,SPACEBEE-104,PAYLOAD,U,21059M,2023/4/24 9:49,716736,15.28977604,0.0006937,97.5875,250.1664,111.4744,248.7236,0,999,10117,0.0047225,0.00135178,0,3893330,0 SPACEBEE-104,1 48890U 21059M   23114.40914024  .00135178  00000-0  47225-2 0  9998,2 48890  97.5875 250.1664 0006937 111.4744 248.7236 15.28977604101174,2021-059M,48890,6857.004,94.181,483.626,474.113,0,
GENERATED VIA SPACETRACK.ORG API,18 SPCS,48890,SPACEBEE-104,PAYLOAD,U,21059M,2023/4/25 7:48,898528,15.29001333,0.0006874,97.5877,251.1007,107.7727,252.4263,0,999,10131,0.0012605,0.00035576,0,3894092,0 SPACEBEE-104,1 48890U 21059M   23115.32538077  .00035576  00000-0  12605-2 0  9995,2 48890  97.5877 251.1007 0006874 107.7727 252.4263 15.29001333101313,2021-059M,48890,6856.933,94.179,483.512,474.085,0,
GENERATED VIA SPACETRACK.ORG API,18 SPCS,48890,SPACEBEE-104,PAYLOAD,U,21059M,2023/4/26 8:56,234336,15.2905981,0.0006924,97.5877,252.1682,104.4635,255.7373,0,999,10147,0.0010406,0.00029385,0,3894260,0 SPACEBEE-104,1 48890U 21059M   23116.37246799  .00029385  00000-0  10406-2 0  9996,2 48890  97.5877 252.1682 0006924 104.4635 255.7373 15.29059810101479,2021-059M,48890,6856.759,94.176,483.371,473.876,0,
GENERATED VIA SPACETRACK.ORG API,18 SPCS,48890,SPACEBEE-104,PAYLOAD,U,21059M,2023/4/26 15:13,742432,15.2907485,0.0006944,97.5877,252.4352,103.7016,256.4997,0,999,10151,0.0010295,0.00029083,0,3894261,0 SPACEBEE-104,1 48890U 21059M   23116.63423313  .00029083  00000-0  10295-2 0  9995,2 48890  97.5877 252.4352 0006944 103.7016 256.4997 15.29074850101519,2021-059M,48890,6856.714,94.175,483.34,473.817,0,
GENERATED VIA SPACETRACK.ORG API,18 SPCS,48890,SPACEBEE-104,PAYLOAD,U,21059M,2023/4/27 8:29,900288,15.29120756,0.0006885,97.5875,253.1693,101.3802,258.8211,0,999,10162,0.0011151,0.00031562,0,3894751,0 SPACEBEE-104,1 48890U 21059M   23117.35407292  .00031562  00000-0  11151-2 0  9990,2 48890  97.5875 253.1693 0006885 101.3802 258.8211 15.29120756101628,2021-059M,48890,6856.576,94.172,483.162,473.721,0,
GENERATED VIA SPACETRACK.ORG API,18 SPCS,48890,SPACEBEE-104,PAYLOAD,U,21059M,2023/4/27 19:29,941792,15.29156187,0.0006821,97.5873,253.6366,99.9403,260.2606,0,999,10169,0.0012806,0.00036319,0,3894969,0 SPACEBEE-104,1 48890U 21059M   23117.81214053  .00036319  00000-0  12806-2 0  9995,2 48890  97.5873 253.6366 0006821  99.9403 260.2606 15.29156187101696,2021-059M,48890,6856.47,94.17,483.012,473.659,0,
GENERATED VIA SPACETRACK.ORG API,18 SPCS,48890,SPACEBEE-104,PAYLOAD,U,21059M,2023/4/28 8:03,880416,15.29188297,0.0006767,97.5875,254.1702,98.2702,261.9305,0,999,10177,0.0011209,0.00031792,0,3895770,0 SPACEBEE-104,1 48890U 21059M   23118.33563519  .00031792  00000-0  11209-2 0  9993,2 48890  97.5875 254.1702 0006767  98.2702 261.9305 15.29188297101771,2021-059M,48890,6856.374,94.168,482.879,473.6,0,
GENERATED VIA SPACETRACK.ORG API,18 SPCS,48890,SPACEBEE-104,PAYLOAD,U,21059M,2023/4/29 4:28,254688,15.29247,0.0006752,97.5874,255.038,95.4092,264.7918,0,999,10190,0.0011651,0.00033114,0,3896249,0 SPACEBEE-104,1 48890U 21059M   23119.18628767  .00033114  00000-0  11651-2 0  9995,2 48890  97.5874 255.0380 0006752  95.4092 264.7918 15.29247000101901,2021-059M,48890,6856.199,94.164,482.693,473.435,0,
GENERATED VIA SPACETRACK.ORG API,18 SPCS,48890,SPACEBEE-104,PAYLOAD,U,21059M,2023/4/29 7:36,134976,15.29256217,0.0006727,97.5874,255.1715,95.1068,265.0939,0,999,10192,0.0011473,0.00032614,0,3896517,0 SPACEBEE-104,1 48890U 21059M   23119.31715434  .00032614  00000-0  11473-2 0  9994,2 48890  97.5874 255.1715 0006727  95.1068 265.0939 15.29256217101925,2021-059M,48890,6856.171,94.163,482.649,473.424,0,
GENERATED VIA SPACETRACK.ORG API,18 SPCS,48890,SPACEBEE-104,PAYLOAD,U,21059M,2023/4/30 8:44,733888,15.29329242,0.0006704,97.5875,256.2394,91.6941,268.5067,0,999,10208,0.0011249,0.00032045,0,3897442,0 SPACEBEE-104,1 48890U 21059M   23120.36405942  .00032045  00000-0  11249-2 0  9990,2 48890  97.5875 256.2394 0006704  91.6941 268.5067 15.29329242102084,2021-059M,48890,6855.953,94.159,482.414,473.222,0,
GENERATED VIA SPACETRACK.ORG API,18 SPCS,48890,SPACEBEE-104,PAYLOAD,U,21059M,2023/4/30 15:01,236480,15.29345531,0.0006727,97.5875,256.5065,90.8057,269.3953,0,999,10212,0.0010799,0.0003077,0,3897368,0 SPACEBEE-104,1 48890U 21059M   23120.62577820  .00030770  00000-0  10799-2 0  9996,2 48890  97.5875 256.5065 0006727  90.8057 269.3953 15.29345531102123,2021-059M,48890,6855.905,94.158,482.382,473.158,0,
